GSAT0214 (GALILEO 18)   
1 41862U 16069D   26071.91273604  .00000028  00000+0  00000+0 0  9999
2 41862  55.4337 103.7448 0004476 297.9628  62.0628  1.70474834 58006
SES-15 (WAAS/PRN 133)   
1 42709U 17026A   26071.61751647  .00000060  00000+0  00000+0 0  9995
2 42709   0.0388 330.9168 0000706  38.8107 253.6487  1.00270524  6465
QZS-2 (QZSS/PRN 194)    
1 42738U 17028A   26073.34350848 -.00000134  00000+0  00000+0 0  9992
2 42738  39.5754 244.5340 0744466 270.4251 281.8153  1.00259390  6679
QZS-3 (QZSS/PRN 199)    
1 42917U 17048A   26073.87885639 -.00000349  00000+0  00000+0 0  9990
2 42917   0.0569 196.4791 0002322 175.3191 244.1173  1.00270941 31312
COSMOS 2522 (752)       
1 42939U 17055A   26073.33256676  .00000001  00000+0  00000+0 0  9990
2 42939  64.0786 195.1100 0007590 228.7729 131.1447  2.13101875 65959
QZS-4 (QZSS/PRN 195)    
1 42965U 17062A   26073.61503141 -.00000295  00000+0  00000+0 0  9996
2 42965  40.1666 344.6945 0747998 270.0340 279.5094  1.00278286 30852
BEIDOU-3 M1 (C19)       
1 43001U 17069A   26072.01799936  .00000011  00000+0  00000+0 0  9992
2 43001  56.6089  66.2503 0012510 309.8790  50.0328  1.86231473 56814
BEIDOU-3 M2 (C20)       
1 43002U 17069B   26071.95651705  .00000011  00000+0  00000+0 0  9996
2 43002  56.6078  66.2881 0009836 329.3549  30.6095  1.86230974 56807
GSAT0215 (GALILEO 19)   
1 43055U 17079A   26071.81619082  .00000037  00000+0  00000+0 0  9990
2 43055  55.1052 224.1555 0000503 355.2258   4.7321  1.70474604 51342
GSAT0216 (GALILEO 20)   
1 43056U 17079B   26073.28055991  .00000034  00000+0  00000+0 0  9994
2 43056  55.1052 224.1154 0001736 311.7748  48.1644  1.70474699 51386
GSAT0217 (GALILEO 21)   
1 43057U 17079C   26071.74158320  .00000037  00000+0  00000+0 0  9997
2 43057  55.1048 224.1555 0001948 350.8522   9.1027  1.70474639 51348
GSAT0218 (GALILEO 22)   
1 43058U 17079D   26072.54820792  .00000036  00000+0  00000+0 0  9995
2 43058  55.1035 224.1311 0002024 298.9535  60.9828  1.70474604 51387
BEIDOU-3 M7 (C27)       
1 43107U 18003A   26069.01366214 -.00000054  00000+0  00000+0 0  9991
2 43107  54.4158 305.7741 0004805  71.6026 288.4990  1.86232563 55501
BEIDOU-3 M8 (C28)       
1 43108U 18003B   26073.25488985 -.00000022  00000+0  00000+0 0  9998
2 43108  54.4046 305.6088 0002915 295.6830  64.3443  1.86231237 55592
BEIDOU-3 M4 (C22)       
1 43207U 18018A   26072.08626660  .00000012  00000+0  00000+0 0  9996
2 43207  56.5678  66.3153 0006972 350.3592   9.6495  1.86231392 54951
BEIDOU-3 M3 (C21)       
1 43208U 18018B   26072.15271001  .00000012  00000+0  00000+0 0  9990
2 43208  56.5674  66.3171 0010039 319.6425  40.3052  1.86231479 54957
BEIDOU-3 M9 (C29)       
1 43245U 18029A   26071.83299133 -.00000026  00000+0  00000+0 0  9999
2 43245  54.2803 303.3197 0000989  26.5592 333.4992  1.86228478 54102
